#aV2015 10 10  0  0  0.00000000     288 DD+AD WGS84 FIT  NGA
## 1865 518400.00000000   300.00000000 57305 0.0000000000000
+   31     1  2  3  4  5  6  7  8  9 11 12 13 14 15 16 17 18
+         19 20 21 22 23 24 25 26 27 28 29 30 31 32  0  0  0
+          0  0  0  0  0  0  0  0  0  0  0  0  0  0  0  0  0
+          0  0  0  0  0  0  0  0  0  0  0  0  0  0  0  0  0
+          0  0  0  0  0  0  0  0  0  0  0  0  0  0  0  0  0
++         2  2  2  2  2  2  2  2  2  2  2  2  2  2  2  2  2
++         2  2  2  2  2  2  2  2  2  2  2  2  2  2  0  0  0
++         0  0  0  0  0  0  0  0  0  0  0  0  0  0  0  0  0
++         0  0  0  0  0  0  0  0  0  0  0  0  0  0  0  0  0
++         0  0  0  0  0  0  0  0  0  0  0  0  0  0  0  0  0
%c cc cc ccc ccc cccc cccc cccc cccc ccccc ccccc ccccc ccccc
%c cc cc ccc ccc cccc cccc cccc cccc ccccc ccccc ccccc ccccc
%f  0.0000000  0.000000000  0.00000000000  0.000000000000000
%f  0.0000000  0.000000000  0.00000000000  0.000000000000000
%i    0    0    0    0      0      0      0      0         0
%i    0    0    0    0      0      0      0      0         0
/*      NGA, ST. LOUIS,MO.                                  
/*   EPHEMERIS COMPUTED FROM  1 DAYS OF DATA                
/*   EPOCHA SMOOTHER                                       
/* CCCCCCCCCCCCCCCCCCCCCCCCCCCCCCCCCCCCCCCCCCCCCCCCCCCCCCCCC
*  2015 10 10 14 40  0.00000000
P  1  16656.577993   2514.506230  20510.489776      2.107272                    
V  1   9641.263652  24323.224891 -10574.503222      0.007394                    
P  2 -14253.030849 -22183.186581  -4370.063425    592.229726                    
V  2    141.995219  -6701.706523  30389.837118      0.013725                    
P  3  19617.486053  -7535.936214  16260.700149     20.509879                    
V  3 -10654.850705  17767.263672  21074.581402     -0.010858                    
P  4  17886.630087  12277.413412  15140.086265    -30.563275                    
V  4   6189.531390  18963.744475 -21921.428451     -0.048417                    
P  5  -9952.228863 -12427.330870 -21298.623789   -186.554060                    
V  5  16226.372368 -21560.904727   5205.536573      0.039592                    
P  6  -6197.582634 -25012.077291   6447.940222     74.127985                    
V  6   5736.163087   6412.455718  30365.441611      0.070791                    
P  7   9736.599873 -13412.998863 -20536.484485    483.174493                    
V  7  11068.614409  24034.439091 -10767.092600     -0.008140                    
P  8  25737.312172   5298.745156  -3771.923147     -8.242655                    
V  8  -5108.774195   2292.392685 -31277.746507     -0.013094                    
P  9  19350.750583  -9173.784678 -15727.267208     -3.715024                    
V  9  19654.416645   4047.528130  21816.364006      0.034128                    
P 11  21252.977616   5046.015597  14611.982462   -609.346245                    
V 11  11183.118637  16601.299283 -21119.363384     -0.023628                    
P 12 -18774.929832   4385.154746  18064.133345    335.620411                    
V 12  13606.864007 -18787.158562  18797.939814      0.033076                    
P 13 -20089.777813 -12733.169747 -11841.419277   -155.656032                    
V 13  14949.212054   1184.828366 -27038.881731     -0.028852                    
P 14  -3437.743075  14846.946160  22003.773356     29.013746                    
V 14 -26838.550676  -5116.359794   -898.139914     -0.023080                    
P 15 -26347.834222  -3614.805770  -2916.693738   -276.100887                    
V 15   3744.110862  -3183.169035 -30607.491205     -0.020051                    
P 16   8188.840289  12592.728122 -21941.915833    -77.907006                    
V 16 -18128.397594  20862.592508   5583.927655      0.038284                    
P 17   2519.994102 -14862.385180  22170.093431   -190.527026                    
V 17  27047.865521   4259.262280   -429.673258     -0.011806                    
P 18 -15461.615939  21370.484181   -701.881639    441.630303                    
V 18  -2593.110187  -3619.820119 -31118.269851      0.035510                    
P 19  24998.722063  -1401.750499   9308.182547   -521.331214                    
V 19  11342.189181   4323.715616 -28689.217719     -0.005278                    
P 20 -18943.811608   4599.245113 -18227.974600    362.031199                    
V 20  10416.204672 -20514.325462 -16060.789500      0.029976                    
P 21  -6977.971441  17045.823807 -18311.233876   -485.745382                    
V 21 -12463.152717 -21703.915012 -15205.608319     -0.026285                    
P 22  -6102.891514  23396.896737  11025.584280    399.520880                    
V 22 -10738.177802   9338.438778 -26503.732818      0.038098                    
P 23  26410.589863   -253.950471  -4353.451526   -138.049203                    
V 23   5335.256890   3428.211163  30535.256049     -0.021353                    
P 24 -17557.381830  -5260.315185  19244.590670     -6.066236                    
V 24  -9090.182457 -22775.751865 -14332.874996     -0.005956                    
P 25 -19007.579983  16302.933262   8496.413583    -50.498036                    
V 25   4673.698770 -10154.418046  29753.303745     -0.053997                    
P 26     74.215117  20298.790570 -17124.132880    -79.500044                    
V 26 -14169.266221  16590.263248  19613.204562     -0.128998                    
P 27  19054.927611  11869.215832 -14317.404624     26.409301                    
V 27 -18164.493048    -17.829710 -24113.502577      0.030580                    
P 28  10894.453942 -22485.731342   9507.204792    473.439714                    
V 28   8480.574522  -7452.686897 -29363.837716      0.026136                    
P 29 -21543.533714   6242.984394 -14183.710669    638.819476                    
V 29 -17488.140903  -4719.967124  24496.964599      0.019246                    
P 30   2564.627792 -22355.475987 -14045.150263     38.810037                    
V 30   8250.019094  16041.000331 -24105.632749      0.062380                    
P 31   5870.518867  25088.598185   5775.570566    299.734974                    
V 31  -5109.842729  -5734.354592  31120.253332     -0.014422                    
P 32  14916.124373   5873.311261  21045.273398    -18.481979                    
V 32 -16920.790906  21042.365033   6640.898257      0.113378                    
EOF
